OBJECT_NAME,OBJECT_ID,EPOCH,MEAN_MOTION,ECCENTRICITY,INCLINATION,RA_OF_ASC_NODE,ARG_OF_PERICENTER,MEAN_ANOMALY,EPHEMERIS_TYPE,CLASSIFICATION_TYPE,NORAD_CAT_ID,ELEMENT_SET_NO,REV_AT_EPOCH,BSTAR,MEAN_MOTION_DOT,MEAN_MOTION_DDOT
STARLINK-34776,2025-161Y,2026-06-12T07:18:35.028576,15.30209771,.00016041,53.1580,214.8830,116.7677,243.3488,0,U,65037,999,4871,.64876864E-3,.1891E-3,0
STARLINK-34827,2025-161Z,2026-06-12T06:50:35.830752,15.34415010,.00012332,53.1586,214.0458,107.4377,252.6760,0,U,65038,999,4872,.79572117E-3,.26617E-3,0
STARLINK-34721,2025-161AA,2026-06-11T11:26:08.018016,15.30185935,.0001207,53.1599,218.2398,82.8668,277.2470,0,U,65039,999,4859,.82041E-3,.24007E-3,0
STARLINK-34819,2025-161AB,2026-06-11T11:23:14.914752,15.30209911,.0001277,53.1590,218.9352,71.0768,289.0371,0,U,65040,999,4858,.70055E-3,.20453E-3,0
STARLINK-34820,2025-161AC,2026-06-11T10:07:00.812352,15.34408733,.0001056,53.1595,217.9030,66.6476,293.4638,0,U,65041,999,4859,.73133E-3,.2442E-3,0
STARLINK-34824,2025-161AD,2026-06-12T06:53:38.784480,15.34425244,.00015534,53.1598,214.0607,89.6799,270.4382,0,U,65042,999,4872,.71393402E-3,.23841E-3,0
HULIANWANG DIGUI-40,2025-162A,2026-06-12T04:54:11.081952,13.29325253,.00003249,50.0004,283.8143,127.4669,232.6233,0,U,65043,999,4268,.65988375E-4,-.93E-6,0
HULIANWANG DIGUI-41,2025-162B,2026-06-12T04:42:09.763776,13.29324862,.00002734,50.0014,283.7958,120.5564,239.5335,0,U,65044,999,4269,.63471103E-4,-.95E-6,0
HULIANWANG DIGUI-42,2025-162C,2026-06-12T06:18:19.719072,13.29325411,.00003186,49.9979,283.3948,126.6710,233.4191,0,U,65045,999,4270,.5288923E-4,-.99E-6,0
HULIANWANG DIGUI-43,2025-162D,2026-06-12T06:06:17.931744,13.29323979,.00003408,49.9996,283.3959,133.3929,226.6971,0,U,65046,999,4270,.64574274E-4,-.94E-6,0
HULIANWANG DIGUI-44,2025-162E,2026-06-12T05:53:49.990272,13.29316449,.00010926,50.0023,283.4186,219.8982,140.1810,0,U,65047,999,4271,.6846656E-4,-.92E-6,0
HULIANWANG DIGUI-45,2025-162F,2026-06-12T03:54:01.778976,13.29324926,.00003199,50.0053,283.7225,122.2703,237.8200,0,U,65048,999,4269,.80254893E-4,-.87E-6,0
HULIANWANG DIGUI-46,2025-162G,2026-06-12T05:30:16.884576,13.29324835,.0000333,50.0071,283.4553,120.4003,239.6902,0,U,65049,999,4270,.89790609E-4,-.82E-6,0
HULIANWANG DIGUI-47,2025-162H,2026-06-12T05:18:14.955552,13.29324498,.00003661,50.0036,283.3234,124.0180,236.0727,0,U,65050,999,4270,.96781405E-4,-.79E-6,0
HULIANWANG DIGUI-48,2025-162J,2026-06-12T05:06:14.365728,13.29325405,.00003246,50.0046,283.3046,125.5158,234.5745,0,U,65051,999,4270,.82708478E-4,-.86E-6,0
NISAR,2025-163A,2026-06-12T05:45:51.189120,14.42505970,.00012185,98.4052,350.9774,89.2101,270.9228,0,U,65053,999,4567,.86352994E-4,.243E-5,0
PRSC-S1,2025-164A,2026-06-12T06:59:54.469824,15.06415083,.00072536,41.1313,315.3831,313.8366,46.1848,0,U,65055,999,4769,.36452583E-3,.5296E-4,0
STARLINK-34788,2025-165A,2026-06-12T05:11:00.646080,15.05662134,.00016699,97.3686,239.5734,96.1751,263.9667,0,U,65056,999,4901,.41330142E-3,.5913E-4,0
STARLINK-34745,2025-165B,2026-06-12T04:03:13.179456,15.05658376,.00017941,97.3701,239.4829,112.4808,247.6610,0,U,65057,999,4900,.320702E-3,.4574E-4,0
STARLINK-34779,2025-165C,2026-06-12T05:07:01.500384,15.05660997,.00020201,97.3693,239.5775,114.3406,245.8033,0,U,65058,999,4901,.32975382E-3,.4705E-4,0
STARLINK-34803,2025-165D,2026-06-12T04:59:02.989536,15.05641831,.00004229,97.3736,239.5872,17.0444,343.0797,0,U,65059,999,4901,-.24990773E-3,-.366E-4,0
STARLINK-34717,2025-165E,2026-06-12T06:18:48.520512,15.05650417,.00018661,97.3700,239.6644,115.8919,244.2501,0,U,65060,999,4902,-.17825841E-4,-.315E-5,0
STARLINK-34750,2025-165F,2026-06-12T04:23:09.561120,15.05653607,.00007761,97.3708,239.6215,51.2385,308.8911,0,U,65061,999,4901,.64327119E-3,.9237E-4,0
STARLINK-34708,2025-165G,2026-06-12T05:14:59.856576,15.05659562,.0000779,97.3716,239.5713,105.7348,254.3966,0,U,65062,999,4901,.32430648E-3,.4626E-4,0
STARLINK-34798,2025-165H,2026-06-12T04:35:07.756800,15.05661154,.00017267,97.3695,239.6110,126.4793,233.6594,0,U,65063,999,4901,.32613869E-3,.4653E-4,0
STARLINK-34793,2025-165J,2026-06-12T04:47:04.835328,15.05673244,.00023135,97.3705,239.5944,112.5680,247.5792,0,U,65064,999,4901,.12012655E-2,.17328E-3,0
STARLINK-34806,2025-165K,2026-06-12T04:11:11.527008,15.05660102,.0000486,97.3727,239.4789,233.4746,126.6437,0,U,65065,999,4900,.5014859E-3,.7187E-4,0
STARLINK-34739,2025-165L,2026-06-12T04:31:08.700960,15.05661354,.00019711,97.3694,239.6134,117.3853,242.7575,0,U,65066,999,4901,.42999847E-3,.6154E-4,0
STARLINK-34802,2025-165M,2026-06-12T05:19:00.906528,15.05653712,.00018021,97.3710,239.5653,114.2833,245.8583,0,U,65067,999,4901,.80871953E-3,.11631E-3,0
STARLINK-34810,2025-165N,2026-06-12T05:30:56.784096,15.05645914,.00013833,97.3741,239.5579,119.3866,240.7499,0,U,65068,999,4901,-.55775993E-4,-.862E-5,0
