STARLINK-34776          
1 65037U 25161Y   26163.30457209  .00018910  00000+0  64877-3 0  9997
2 65037  53.1580 214.8830 0001604 116.7677 243.3488 15.30209771 48714
STARLINK-34827          
1 65038U 25161Z   26163.28513693  .00026617  00000+0  79572-3 0  9996
2 65038  53.1586 214.0458 0001233 107.4377 252.6760 15.34415010 48727
STARLINK-34721          
1 65039U 25161AA  26162.47648169  .00024007  00000+0  82041-3 0  9990
2 65039  53.1599 218.2398 0001207  82.8668 277.2470 15.30185935 48593
STARLINK-34819          
1 65040U 25161AB  26162.47447818  .00020453  00000+0  70055-3 0  9993
2 65040  53.1590 218.9352 0001277  71.0768 289.0371 15.30209911 48582
STARLINK-34820          
1 65041U 25161AC  26162.42153718  .00024420  00000+0  73133-3 0  9990
2 65041  53.1595 217.9030 0001056  66.6476 293.4638 15.34408733 48594
STARLINK-34824          
1 65042U 25161AD  26163.28725445  .00023841  00000+0  71393-3 0  9990
2 65042  53.1598 214.0607 0001553  89.6799 270.4382 15.34425244 48723
HULIANWANG DIGUI-40     
1 65043U 25162A   26163.20429493 -.00000093  00000+0  65988-4 0  9997
2 65043  50.0004 283.8143 0000324 127.4669 232.6233 13.29325253 42688
HULIANWANG DIGUI-41     
1 65044U 25162B   26163.19594634 -.00000095  00000+0  63471-4 0  9993
2 65044  50.0014 283.7958 0000273 120.5564 239.5335 13.29324862 42699
HULIANWANG DIGUI-42     
1 65045U 25162C   26163.26272823 -.00000099  00000+0  52889-4 0  9990
2 65045  49.9979 283.3948 0000318 126.6710 233.4191 13.29325411 42708
HULIANWANG DIGUI-43     
1 65046U 25162D   26163.25437421 -.00000094  00000+0  64574-4 0  9996
2 65046  49.9996 283.3959 0000340 133.3929 226.6971 13.29323979 42709
HULIANWANG DIGUI-44     
1 65047U 25162E   26163.24571748 -.00000092  00000+0  68467-4 0  9990
2 65047  50.0023 283.4186 0001092 219.8982 140.1810 13.29316449 42718
HULIANWANG DIGUI-45     
1 65048U 25162F   26163.16252059 -.00000087  00000+0  80255-4 0  9996
2 65048  50.0053 283.7225 0000319 122.2703 237.8200 13.29324926 42691
HULIANWANG DIGUI-46     
1 65049U 25162G   26163.22936209 -.00000082  00000+0  89791-4 0  9999
2 65049  50.0071 283.4553 0000333 120.4003 239.6902 13.29324835 42702
HULIANWANG DIGUI-47     
1 65050U 25162H   26163.22100643 -.00000079  00000+0  96781-4 0  9999
2 65050  50.0036 283.3234 0000366 124.0180 236.0727 13.29324498 42703
HULIANWANG DIGUI-48     
1 65051U 25162J   26163.21266627 -.00000086  00000+0  82708-4 0  9996
2 65051  50.0046 283.3046 0000324 125.5158 234.5745 13.29325405 42703
NISAR                   
1 65053U 25163A   26163.24017580  .00000243  00000+0  86353-4 0  9998
2 65053  98.4052 350.9774 0001218  89.2101 270.9228 14.42505970 45676
PRSC-S1                 
1 65055U 25164A   26163.29160266  .00005296  00000+0  36453-3 0  9994
2 65055  41.1313 315.3831 0007253 313.8366  46.1848 15.06415083 47697
STARLINK-34788          
1 65056U 25165A   26163.21597970  .00005913  00000+0  41330-3 0  9990
2 65056  97.3686 239.5734 0001669  96.1751 263.9667 15.05662134 49013
STARLINK-34745          
1 65057U 25165B   26163.16890254  .00004574  00000+0  32070-3 0  9999
2 65057  97.3701 239.4829 0001794 112.4808 247.6610 15.05658376 49009
STARLINK-34779          
1 65058U 25165C   26163.21321181  .00004705  00000+0  32975-3 0  9994
2 65058  97.3693 239.5775 0002020 114.3406 245.8033 15.05660997 49011
STARLINK-34803          
1 65059U 25165D   26163.20767349 -.00003660  00000+0 -24991-3 0  9994
2 65059  97.3736 239.5872 0000422  17.0444 343.0797 15.05641831 49017
STARLINK-34717          
1 65060U 25165E   26163.26306158 -.00000315  00000+0 -17826-4 0  9993
2 65060  97.3700 239.6644 0001866 115.8919 244.2501 15.05650417 49021
STARLINK-34750          
1 65061U 25165F   26163.18274955  .00009237  00000+0  64327-3 0  9991
2 65061  97.3708 239.6215 0000776  51.2385 308.8911 15.05653607 49018
STARLINK-34708          
1 65062U 25165G   26163.21874834  .00004626  00000+0  32431-3 0  9996
2 65062  97.3716 239.5713 0000779 105.7348 254.3966 15.05659562 49018
STARLINK-34798          
1 65063U 25165H   26163.19106200  .00004653  00000+0  32614-3 0  9992
2 65063  97.3695 239.6110 0001726 126.4793 233.6594 15.05661154 49011
STARLINK-34793          
1 65064U 25165J   26163.19936152  .00017328  00000+0  12013-2 0  9993
2 65064  97.3705 239.5944 0002313 112.5680 247.5792 15.05673244 49019
STARLINK-34806          
1 65065U 25165K   26163.17443897  .00007187  00000+0  50149-3 0  9996
2 65065  97.3727 239.4789 0000486 233.4746 126.6437 15.05660102 49006
STARLINK-34739          
1 65066U 25165L   26163.18829515  .00006154  00000+0  43000-3 0  9994
2 65066  97.3694 239.6134 0001971 117.3853 242.7575 15.05661354 49019
STARLINK-34802          
1 65067U 25165M   26163.22153827  .00011631  00000+0  80872-3 0  9990
2 65067  97.3710 239.5653 0001802 114.2833 245.8583 15.05653712 49013
STARLINK-34810          
1 65068U 25165N   26163.22982389 -.00000862  00000+0 -55776-4 0  9996
2 65068  97.3741 239.5579 0001383 119.3866 240.7499 15.05645914 49016
